NORAD_CAT_ID,OBJECT_NAME,OBJECT_TYPE,EPOCH,MEAN_MOTION,ECCENTRICITY,INCLINATION,RA_OF_ASC_NODE,ARG_OF_PERICENTER,MEAN_ANOMALY,BSTAR,MEAN_MOTION_DOT,MEAN_MOTION_DDOT,TLE_LINE0,TLE_LINE1,TLE_LINE2,SEMIMAJOR_AXIS,PERIOD,APOGEE,PERIGEE,DECAYED
53623.0,STARLINK-4573,PAYLOAD,2024-02-11 09:54:11,15.08847043,0.0001705,53.2185,33.5415,97.3986,262.72,9.5001e-05,1.224e-05,0.0,0 STARLINK-4573,1 53623U 22104AM  24042.41263343  .00001224  00000-0  95001-4 0  9994,2 53623  53.2185  33.5415 0001705  97.3986 262.7200 15.08847043 80749,6917.859,95.437,540.903,538.544,0.0
53623.0,STARLINK-4573,PAYLOAD,2024-02-12 03:23:26,15.08842547,0.0001657,53.219,30.2702,96.0628,264.0553,0.00013984,1.938e-05,0.0,0 STARLINK-4573,1 53623U 22104AM  24043.14127515  .00001938  00000-0  13984-3 0  9996,2 53623  53.2190  30.2702 0001657  96.0628 264.0553 15.08842547 80855,6917.873,95.437,540.884,538.591,0.0
53623.0,STARLINK-4573,PAYLOAD,2024-02-12 08:09:35,15.08851814,0.0001859,53.2186,29.3773,88.2736,271.8469,0.00024733,3.652e-05,0.0,0 STARLINK-4573,1 53623U 22104AM  24043.33999112  .00003652  00000-0  24733-3 0  9996,2 53623  53.2186  29.3773 0001859  88.2736 271.8469 15.08851814 81562,6917.844,95.437,540.995,538.423,0.0
53623.0,STARLINK-4573,PAYLOAD,2024-02-13 03:14:13,15.0884055,0.000182,53.2184,25.8099,89.7702,270.3499,-9.9136e-06,-4.46e-06,0.0,0 STARLINK-4573,1 53623U 22104AM  24044.13487603 -.00000446  00000-0 -99136-5 0  9993,2 53623  53.2184  25.8099 0001820  89.7702 270.3499 15.08840550 81000,6917.879,95.438,541.003,538.485,0.0
53623.0,STARLINK-4573,PAYLOAD,2024-02-13 06:24:59,15.08840726,0.0001506,53.2182,25.2159,94.1844,265.932,3.4192e-05,2.56e-06,0.0,0 STARLINK-4573,1 53623U 22104AM  24044.26735611  .00000256  00000-0  34192-4 0  9999,2 53623  53.2182  25.2159 0001506  94.1844 265.9320 15.08840726 81702,6917.878,95.438,540.785,538.701,0.0
53623.0,STARLINK-4573,PAYLOAD,2024-02-13 22:18:51,15.08839867,0.0001629,53.218,22.244,105.5542,254.5631,7.0596e-05,8.36e-06,0.0,0 STARLINK-4573,1 53623U 22104AM  24044.92975779  .00000836  00000-0  70596-4 0  9995,2 53623  53.2180  22.2440 0001629 105.5542 254.5631 15.08839867 81802,6917.881,95.438,540.873,538.619,0.0
53623.0,STARLINK-4573,PAYLOAD,2024-02-14 04:40:22,15.08849072,0.0001294,53.2185,21.0519,104.6003,255.5133,3.2602e-05,2.31e-06,0.0,0 STARLINK-4573,1 53623U 22104AM  24045.19470994  .00000231  00000-0  32602-4 0  9999,2 53623  53.2185  21.0519 0001294 104.6003 255.5133 15.08849072 81167,6917.853,95.437,540.613,538.822,0.0
53623.0,STARLINK-4573,PAYLOAD,2024-02-14 15:48:05,15.0884124,0.0001552,53.2192,18.97,98.8353,261.2815,6.0052e-05,6.68e-06,0.0,0 STARLINK-4573,1 53623U 22104AM  24045.65839600  .00000668  00000-0  60052-4 0  9997,2 53623  53.2192  18.9700 0001552  98.8353 261.2815 15.08841240 81239,6917.877,95.437,540.815,538.668,0.0
53623.0,STARLINK-4573,PAYLOAD,2024-02-14 22:09:38,15.08834977,0.0001646,53.218,17.7809,104.7638,255.3537,7.8695e-05,9.64e-06,0.0,0 STARLINK-4573,1 53623U 22104AM  24045.92336165  .00000964  00000-0  78695-4 0  9996,2 53623  53.2180  17.7809 0001646 104.7638 255.3537 15.08834977 81953,6917.896,95.438,540.899,538.622,0.0
53623.0,STARLINK-4573,PAYLOAD,2024-02-15 04:31:11,15.08834585,0.0001551,53.2181,16.5938,93.5516,266.5654,7.1699e-05,8.53e-06,0.0,0 STARLINK-4573,1 53623U 22104AM  24046.18832343  .00000853  00000-0  71699-4 0  9998,2 53623  53.2181  16.5938 0001551  93.5516 266.5654 15.08834585 81318,6917.897,95.438,540.835,538.689,0.0
53623.0,STARLINK-4573,PAYLOAD,2024-02-15 07:41:57,15.08837368,0.0001621,53.2187,15.9982,95.1053,265.0125,0.00010531,1.388e-05,0.0,0 STARLINK-4573,1 53623U 22104AM  24046.32080225  .00001388  00000-0  10531-3 0  9999,2 53623  53.2187  15.9982 0001621  95.1053 265.0125 15.08837368 82015,6917.888,95.438,540.875,538.632,0.0
53623.0,STARLINK-4573,PAYLOAD,2024-02-16 05:57:20,15.08850449,0.0001498,53.2173,11.8338,94.2255,265.8908,0.00018042,2.585e-05,0.0,0 STARLINK-4573,1 53623U 22104AM  24047.24815732  .00002585  00000-0  18042-3 0  9995,2 53623  53.2173  11.8338 0001498  94.2255 265.8908 15.08850449 81477,6917.848,95.437,540.75,538.677,0.0
53623.0,STARLINK-4573,PAYLOAD,2024-02-16 07:32:43,15.08850075,0.0001561,53.2175,11.5352,100.1251,259.9917,0.00015791,2.227e-05,0.0,0 STARLINK-4573,1 53623U 22104AM  24047.31439682  .00002227  00000-0  15791-3 0  9990,2 53623  53.2175  11.5352 0001561 100.1251 259.9917 15.08850075 82162,6917.85,95.437,540.794,538.635,0.0
53623.0,STARLINK-4573,PAYLOAD,2024-02-16 21:51:12,15.08840036,0.0001667,53.2175,8.8606,87.003,273.1153,0.00023456,3.447e-05,0.0,0 STARLINK-4573,1 53623U 22104AM  24047.91056325  .00003447  00000-0  23456-3 0  9997,2 53623  53.2175   8.8606 0001667  87.0030 273.1153 15.08840036 82254,6917.88,95.438,540.898,538.592,0.0
53623.0,STARLINK-4573,PAYLOAD,2024-02-17 04:12:44,15.08848756,0.0001423,53.2178,7.6731,91.5259,268.5896,0.0003015,4.515e-05,0.0,0 STARLINK-4573,1 53623U 22104AM  24048.17551825  .00004515  00000-0  30150-3 0  9997,2 53623  53.2178   7.6731 0001423  91.5259 268.5896 15.08848756 81614,6917.854,95.437,540.703,538.734,0.0
53623.0,STARLINK-4573,PAYLOAD,2024-02-17 13:45:03,15.08852509,0.0001251,53.2173,5.8846,81.9503,278.1631,0.00023246,3.415e-05,0.0,0 STARLINK-4573,1 53623U 22104AM  24048.57295382  .00003415  00000-0  23246-3 0  9990,2 53623  53.2173   5.8846 0001251  81.9503 278.1631 15.08852509 82357,6917.842,95.437,540.573,538.842,0.0
53623.0,STARLINK-4573,PAYLOAD,2024-02-18 02:28:08,15.08837746,0.0001699,53.219,3.5105,102.3431,257.7751,-0.00015135,-2.696e-05,0.0,0 STARLINK-4573,1 53623U 22104AM  24049.10288004 -.00002696  00000-0 -15135-3 0  9993,2 53623  53.2190   3.5105 0001699 102.3431 257.7751 15.08837746 81758,6917.887,95.438,540.928,538.577,0.0
53623.0,STARLINK-4573,PAYLOAD,2024-02-18 13:35:51,15.08826934,0.0001449,53.2172,1.4297,81.2618,278.8538,-0.0002456,-4.193e-05,0.0,0 STARLINK-4573,1 53623U 22104AM  24049.56656951 -.00004193  00000-0 -24560-3 0  9999,2 53623  53.2172   1.4297 0001449  81.2618 278.8538 15.08826934 82500,6917.92,95.438,540.788,538.783,0.0
53623.0,STARLINK-4573,PAYLOAD,2024-02-19 05:29:43,15.08837193,0.0001511,53.2184,358.4569,86.1597,273.9568,2.215e-06,-2.53e-06,0.0,0 STARLINK-4573,1 53623U 22104AM  24050.22897063 -.00000253  00000-0  22150-5 0  9992,2 53623  53.2184 358.4569 0001511  86.1597 273.9568 15.08837193 81923,6917.889,95.438,540.799,538.709,0.0
53623.0,STARLINK-4573,PAYLOAD,2024-02-19 13:26:38,15.08838873,0.0001286,53.2182,356.9675,93.4239,266.69,1.3292e-05,-7.6e-07,0.0,0 STARLINK-4573,1 53623U 22104AM  24050.56016960 -.00000076  00000-0  13292-4 0  9997,2 53623  53.2182 356.9675 0001286  93.4239 266.6900 15.08838873 82651,6917.884,95.438,540.638,538.859,0.0
53623.0,STARLINK-4573,PAYLOAD,2024-02-20 05:20:29,15.08849931,0.0001324,53.2179,353.9929,92.116,267.9983,0.00043649,6.667e-05,0.0,0 STARLINK-4573,1 53623U 22104AM  24051.22256843  .00006667  00000-0  43649-3 0  9996,2 53623  53.2179 353.9929 0001324  92.1160 267.9983 15.08849931 82076,6917.85,95.437,540.631,538.799,0.0
53623.0,STARLINK-4573,PAYLOAD,2024-02-20 13:17:25,15.08843109,0.0001533,53.2185,352.5058,73.0348,287.0812,0.00027999,4.171e-05,0.0,0 STARLINK-4573,1 53623U 22104AM  24051.55377288  .00004171  00000-0  27999-3 0  9997,2 53623  53.2185 352.5058 0001533  73.0348 287.0812 15.08843109 82805,6917.871,95.437,540.796,538.675,0.0
53623.0,STARLINK-4573,PAYLOAD,2024-02-21 05:11:17,15.08846909,0.0001657,53.2201,349.5312,78.7124,281.4054,0.00017265,2.461e-05,0.0,0 STARLINK-4573,1 53623U 22104AM  24052.21617173  .00002461  00000-0  17265-3 0  9996,2 53623  53.2201 349.5312 0001657  78.7124 281.4054 15.08846909 82902,6917.859,95.437,540.871,538.578,0.0
53623.0,STARLINK-4573,PAYLOAD,2024-02-22 01:51:18,15.08844072,0.0001486,53.2187,345.6662,87.4681,272.6481,-2.8588e-05,-7.43e-06,0.0,0 STARLINK-4573,1 53623U 22104AM  24053.07729195 -.00000743  00000-0 -28588-4 0  9993,2 53623  53.2187 345.6662 0001486  87.4681 272.6481 15.08844072 82359,6917.868,95.437,540.761,538.705,0.0
53623.0,STARLINK-4573,PAYLOAD,2024-02-22 12:59:00,15.0884289,0.000174,53.2202,343.5865,80.2397,279.8792,0.00010447,1.375e-05,0.0,0 STARLINK-4573,1 53623U 22104AM  24053.54097380  .00001375  00000-0  10447-3 0  9993,2 53623  53.2202 343.5865 0001740  80.2397 279.8792 15.08842890 83101,6917.872,95.437,540.94,538.533,0.0
53623.0,STARLINK-4573,PAYLOAD,2024-02-22 22:31:18,15.08844359,0.0001532,53.2181,341.8024,79.4543,280.6621,0.00017701,2.531e-05,0.0,0 STARLINK-4573,1 53623U 22104AM  24053.93841205  .00002531  00000-0  17701-3 0  9994,2 53623  53.2181 341.8024 0001532  79.4543 280.6621 15.08844359 83166,6917.867,95.437,540.792,538.672,0.0
53623.0,STARLINK-4573,PAYLOAD,2024-02-23 01:42:04,15.08849481,0.0001539,53.2184,341.2081,77.7196,282.3968,0.00013371,1.841e-05,0.0,0 STARLINK-4573,1 53623U 22104AM  24054.07088951  .00001841  00000-0  13371-3 0  9993,2 53623  53.2184 341.2081 0001539  77.7196 282.3968 15.08849481 83184,6917.851,95.437,540.781,538.652,0.0
53623.0,STARLINK-4573,PAYLOAD,2024-02-23 19:11:19,15.08842609,0.0001763,53.2182,337.9389,71.1097,289.0086,9.064e-05,1.155e-05,0.0,0 STARLINK-4573,1 53623U 22104AM  24054.79953376  .00001155  00000-0  90640-4 0  9997,2 53623  53.2182 337.9389 0001763  71.1097 289.0086 15.08842609 82619,6917.872,95.437,540.957,538.518,0.0
53623.0,STARLINK-4573,PAYLOAD,2024-02-23 22:22:05,15.08841435,0.0001499,53.2175,337.3415,97.1016,263.0147,6.5319e-05,7.52e-06,0.0,0 STARLINK-4573,1 53623U 22104AM  24054.93201206  .00000752  00000-0  65319-4 0  9998,2 53623  53.2175 337.3415 0001499  97.1016 263.0147 15.08841435 83314,6917.876,95.437,540.778,538.704,0.0
53623.0,STARLINK-4573,PAYLOAD,2024-02-24 11:05:10,15.08844197,0.0001516,53.2189,334.9625,85.662,274.4545,9.0049e-05,1.146e-05,0.0,0 STARLINK-4573,1 53623U 22104AM  24055.46193126  .00001146  00000-0  90049-4 0  9994,2 53623  53.2189 334.9625 0001516  85.6620 274.4545 15.08844197 83392,6917.868,95.437,540.781,538.684,0.0
